[{"OBJECT_NAME":"STARLINK-32017","OBJECT_ID":"2024-111S","EPOCH":"2026-03-09T10:24:29.632320","MEAN_MOTION":15.30188427,"ECCENTRICITY":0.00012116,"INCLINATION":53.1598,"RA_OF_ASC_NODE":76.8789,"ARG_OF_PERICENTER":70.1319,"MEAN_ANOMALY":289.9812,"EPHEMERIS_TYPE":0,"CLASSIFICATION_TYPE":"U","NORAD_CAT_ID":60032,"ELEMENT_SET_NO":999,"REV_AT_EPOCH":9899,"BSTAR":-2.9136899e-5,"MEAN_MOTION_DOT":-1.222e-5,"MEAN_MOTION_DDOT":0},{"OBJECT_NAME":"OBJECT D","OBJECT_ID":"2024-174D","EPOCH":"2026-03-10T00:15:10.483200","MEAN_MOTION":15.28039787,"ECCENTRICITY":0.00110644,"INCLINATION":97.4441,"RA_OF_ASC_NODE":80.4677,"ARG_OF_PERICENTER":212.9968,"MEAN_ANOMALY":147.0582,"EPHEMERIS_TYPE":0,"CLASSIFICATION_TYPE":"U","NORAD_CAT_ID":61241,"ELEMENT_SET_NO":999,"REV_AT_EPOCH":8076,"BSTAR":0.00036340099,"MEAN_MOTION_DOT":9.884e-5,"MEAN_MOTION_DDOT":0}]
